    CK13U04Q  2014 07  4.5050  1.089477  0.981211   23.6180  317.8409  145.0560  20171014  13.5  4.0  C/2013 UQ4 (Catalina)                                    MPC102951
    CK13U10S  2015 11 15.7102  0.824123  1.000365  340.4113  186.1613  148.8743  20171014   4.4  4.0  C/2013 US10 (Catalina)                                   MPC107047
    CK13V010  2014 04 20.8168  1.668526  1.001767   48.1819   72.8218   65.0494  20171014  10.5  4.0  C/2013 V1 (Boattini)                                     MPC102951
    CK13V020  2014 10 13.7299  3.511471  1.002289   94.5112   48.4049   37.8439  20171014   7.0  4.0  C/2013 V2 (Borisov)                                      MPC 10027
    CK13V030  2013 10 28.4864  1.390773  0.889878  339.6099  100.9634   32.1186  20171014  14.0  4.0  C/2013 V3 (Nevski)                                       MPC 88329
    CK13V040  2015 10  7.4357  5.185925  1.001161   40.4471   55.6363   67.8593  20171014   6.0  4.0  C/2013 V4 (Catalina)                                     MPC106343
    CK13V050  2014 09 27.2667  0.627820  0.998104  314.8324  278.8792  154.8699  20171014   9.0  4.0  C/2013 V5 (Oukaimeden)                                   MPC102951
    PK13W010  2020 09 10.3480  1.419264  0.593037    1.3628  117.8595    4.6973  20171014  17.5  4.0  P/2013 W1 (PANSTARRS)                                    MPC 91613
    CK13W020  2014 11 29.0405  4.376982  0.550110  304.1748  178.5139    4.8578  20171014  13.5  2.0  C/2013 W2 (PANSTARRS)                                    MPC 10027
    CK13X010  2016 04 20.5960  1.316063  1.001007  165.0820  131.5568  163.1886  20171014  10.5  2.0  C/2013 X1 (PANSTARRS)                                    MPC106343
    CK13Y020  2014 06 13.6866  1.923312  0.991894  309.0201  243.3180   29.3963  20171014  12.0  4.0  C/2013 Y2 (PANSTARRS)                                    MPC 90768
    PK13Y46G  2017 01 29.5310  1.787679  0.454391  242.3921   48.9077    7.8591  20171014  10.0  4.0  P/2013 YG46 (Spacewatch)                                 MPC101095
    PK14A020  2013 10 27.0694  2.082213  0.648337  356.3140  106.6544   24.5240  20171014  15.0  4.0  P/2014 A2 (Hill)                                         MPC 89728
    PK14A030  2013 04 11.4618  3.532855  0.240948  212.2257  230.4631   13.6974  20171014  12.0  4.0  P/2014 A3 (PANSTARRS)                                    MPC 92981
    CK14A040  2015 09  5.5004  4.178084  1.000387  356.7314   29.7345  121.3679  20171014   6.0  4.0  C/2014 A4 (SONEAR)                                       MPC106343
    CK14A050  2014 08 10.5121  4.802745  0.944341  182.4311  310.0443   31.9730  20171014  10.0  4.0  C/2014 A5 (PANSTARRS)                                    MPC 93585
    CK14A52A  2015 02 27.6788  2.000031  1.000473  292.1999  330.4666  105.1883  20171014  10.0  4.0  C/2014 AA52 (Catalina)                                   MPC 96865
    CK14B010  2017 09 10.6353  9.556592  1.003646  345.8467  161.3953   28.3729  20171014   4.0  4.0  C/2014 B1 (Schwartz)                                     MPC105541
    PK14C010  2019 04 13.1558  1.684892  0.446534   24.0911  167.8573    2.6808  20171014  15.5  4.0  P/2014 C1 (TOTAS)                                        MPC102095
    CK14C020  2014 02 18.0606  0.514017  0.999188   56.1456  283.4501  135.6162  20171014  18.0  4.0  C/2014 C2 (STEREO)                                       MPC 88697
    CK14C030  2014 01 16.3277  1.867023  0.982580  346.0225  204.4989  151.7953  20171014  14.0  4.0  C/2014 C3 (NEOWISE)                                      MPC 90272
    PK14E010  2014 05 22.8420  2.139921  0.423832  185.8959   39.0631   15.9836  20171014  14.0  4.0  P/2014 E1 (Larson)                                       MPC 91614
    CK14E020  2014 07  2.5072  0.661792  0.999070  344.1298   56.5589  156.3358  20171014   7.1  4.4  C/2014 E2 (Jacques)                                      MPC102951
    CK14F010  2013 10  4.5901  3.502480  0.998334    8.2920  239.8364  108.2673  20171014  10.5  4.0  C/2014 F1 (Hill)                                         MPC 90769
    CK14F020  2015 01  2.8097  4.317245  0.970729   86.1305  267.4457  119.0840  20171014   9.5  4.0  C/2014 F2 (Tenagra)                                      MPC 97495
    CK14F030  2021 05  1.4744  5.730226  0.647701    0.9982  327.4956    6.4813  20171014   6.0  4.0  C/2014 F3 (Sheppard-Trujillo)                            MPC 94280
    CK14G010  2013 11  5.1622  5.479158  0.990425   77.1374  337.9581  165.6357  20171014   9.0  4.0  C/2014 G1 (PANSTARRS)                                    MPC 90272
    CK14G030  2015 02  2.2061  4.702637  0.911680  148.0367    4.7081  156.0722  20171014   9.0  4.0  C/2014 G3 (PANSTARRS)                                    MPC101095
    CK14H010  2014 04 15.1876  2.144531  0.984494  169.2844   34.6621   99.9395  20171014  14.5  4.0  C/2014 H1 (Christensen)                                  MPC 88697
    CK14HJ5U  2015 05 18.6806  5.122396  0.766941  145.1341  115.7800    5.8200  20171014  10.5  4.0  C/2014 HU195 (Valdes-TOTAS)                              MPC105541
    CK14J010  2014 06 19.9088  1.711600  0.802452  195.5509   41.9691  159.7061  20171014  17.0  4.0  C/2014 J1 (Catalina)                                     MPC 89010
    PK14L020  2014 07 15.2563  2.230283  0.646514  182.6587  149.3929    5.1860  20171014  12.0  4.0  P/2014 L2 (NEOWISE)                                      MPC 93585
    PK14L030  2014 06 28.9677  1.848775  0.773317  178.5460  115.5195    6.2682  20171014  16.0  4.0  P/2014 L3 (Hill)                                         MPC 90769
    CK14L050  2014 11 25.2263  6.201240  1.000928   45.5555   35.7209  122.8130  20171014   8.0  4.0  C/2014 L5 (Lemmon)                                       MPC 95731
    CK14M010  2015 08 27.1748  5.585496  0.999631  336.9724  234.7479  160.2143  20171014   9.0  4.0  C/2014 M1 (PANSTARRS)                                    MPC103844
    CK14M020  2014 07 18.7210  6.908785  0.995081   40.7760  245.2667   32.4018  20171014   6.0  4.0  C/2014 M2 (Christensen)                                  MPC 95732
    CK14M030  2014 06 21.0879  2.431823  0.981152   93.6319   80.3697  164.9048  20171014  14.0  4.0  C/2014 M3 (Catalina)                                     MPC 90769
    PK14M040  2014 12 27.2753  2.386901  0.594366  147.9787  263.3712    3.3327  20171014  15.0  4.0  P/2014 M4 (PANSTARRS)                                    MPC 91614
    PK14M04G  2013 06 14.3310  3.708657  0.259995  298.8174  311.8026    9.3655  20171014   9.5  4.0  P/2014 MG4 (Spacewatch-PANSTARRS)                        MPC103844
    CK14N020  2014 10  7.6829  2.190795  0.999130  238.0289  143.8734  132.8908  20171014  14.5  4.0  C/2014 N2 (PANSTARRS)                                    MPC 93586
    CK14N030  2015 03 12.7253  3.879033  0.998156  353.4802   19.9307   61.6433  20171014   7.0  4.0  C/2014 N3 (NEOWISE)                                      MPC103844
    PK14O030  2014 04 17.4300  4.636246  0.385816  204.3204   87.6527    7.8072  20171014  10.5  4.0  P/2014 O3 (PANSTARRS)                                    MPC 98560
    CK14O04E  2016 12 11.0272  6.244541  1.000011   65.7676  240.3922   81.3470  20171014  11.0  2.0  C/2014 OE4 (PANSTARRS)                                   MPC107047
    CK14Q010  2015 07  6.3392  0.315946  0.999745  120.1089    8.7548   43.1080  20171014   8.0  4.0  C/2014 Q1 (PANSTARRS)                                    MPC100578
    CK14Q020  2015 01 29.7987  1.291760  0.997520   12.4070   95.0125   80.2564  20171014   2.7 10.0  C/2014 Q2 (Lovejoy)                                      MPC103844
    CK14Q02U  2014 07  9.6098  2.218876  0.990297  320.3340  332.9703  124.8139  20171014  15.0  4.0  C/2014 QU2 (PANSTARRS)                                   MPC 90770
    CK14Q030  2014 11 18.6137  1.648283  0.941530   47.3724   63.1394   89.8892  20171014  -0.5 20.0  C/2014 Q3 (Borisov)                                      MPC102952
    CK14Q060  2015 01  5.9629  4.219353  0.998723    2.4675  326.6230   49.7934  20171014   9.5  4.0  C/2014 Q6 (PANSTARRS)                                    MPC 95732
    CK14R010  2014 11 19.0701  1.348435  0.992636   55.7278  104.0455    9.9220  20171014   6.5  8.8  C/2014 R1 (Borisov)                                      MPC 95211
    CK14R030  2016 08  8.4348  7.276128  0.999202  113.4428  334.1044   90.8439  20171014   6.5  4.0  C/2014 R3 (PANSTARRS)                                    MPC105541
    CK14R040  2014 10 20.8637  1.819538  0.998375  180.8104  279.5372   42.3986  20171014  13.0  4.0  C/2014 R4 (Gibbs)                                        MPC 92982
    PK14R050  2014 06 16.6496  2.386145  0.412283  213.7500  126.5431    1.0882  20171014  15.0  4.0  P/2014 R5 (Lemmon-PANSTARRS)                             MPC 91615
    CK14S010  2013 10 30.6697  8.133297  1.003555  288.7957  352.6563  123.7973  20171014   7.0  4.0  C/2014 S1 (PANSTARRS)                                    MPC 95732
    CK14S020  2015 12 10.0151  2.083223  0.988970   87.4421    8.0631   64.4247  20171014  10.0  4.0  C/2014 S2 (PANSTARRS)                                    MPC104790
    CK14S030  2014 08 13.4684  2.045374  0.976767  293.0878  356.0623  169.3232  20171014  17.0  4.0  C/2014 S3 (PANSTARRS)                                    MPC 90770
    CK14T64G  2014 05 25.6139  3.233241  0.781564  294.6186   50.3070   22.2959  20171014  13.0  4.0  C/2014 TG64 (Catalina)                                   MPC 91615
    PK14U020  2019 10 11.2505  1.128316  0.613210   36.0631  355.3868    7.3659  20171014  19.5  4.0  P/2014 U2 (Kowalski)                                     MPC 92274
    CK14U030  2014 09  3.9594  2.557466  0.997415   51.3357  163.5911  152.9776  20171014  14.5  4.0  C/2014 U3 (Kowalski)                                     MPC 91616
    PK14U040  2014 08  1.1796  1.861454  0.467608  348.0187   12.0323    6.4523  20171014  18.0  4.0  P/2014 U4 (PANSTARRS)                                    MPC 91616
